{
  "type": "FeatureCollection",
  "features": [
    {
      "type": "Feature",
      "properties": {
        "norad_id": 36036,
        "name": "SMOS",
        "group": "resource",
        "lat": -28.110890358175446,
        "lon": -10.743639380881763,
        "alt_km": 765.6099331050318,
        "timestamp": "2025-12-14T18:52:55.154950+00:00",
        "meta_object_name": "SMOS",
        "meta_object_id": "2009-059A",
        "meta_epoch": "2025-12-13T23:34:12.601920",
        "meta_mean_motion": 14.39742378,
        "meta_eccentricity": 0.00011012,
        "meta_inclination": 98.438,
        "meta_ra_of_asc_node": 173.0121,
        "meta_arg_of_pericenter": 83.934,
        "meta_mean_anomaly": 276.1974,
        "meta_ephemeris_type": 0,
        "meta_classification_type": "U",
        "meta_norad_cat_id": 36036,
        "meta_element_set_no": 999,
        "meta_rev_at_epoch": 84680,
        "meta_bstar": 0.00017653416,
        "meta_mean_motion_dot": 5.1e-06,
        "meta_mean_motion_ddot": 0,
        "tle_line1": "1 36036U 09059A   25347.98209030  .00000510  00000+0  17653-3 0  9993",
        "tle_line2": "2 36036  98.4380 173.0121 0001101  83.9340 276.1974 14.39742378846807"
      },
      "geometry": {
        "type": "Point",
        "coordinates": [
          -10.743639380881763,
          -28.110890358175446
        ]
      }
    },
    {
      "type": "Feature",
      "properties": {
        "norad_id": 36110,
        "name": "YAOGAN-7",
        "group": "resource",
        "lat": -46.525286933833826,
        "lon": -120.90118306163266,
        "alt_km": 630.411985987067,
        "timestamp": "2025-12-14T18:52:55.154960+00:00",
        "meta_object_name": "YAOGAN-7",
        "meta_object_id": "2009-069A",
        "meta_epoch": "2025-12-13T15:28:04.382688",
        "meta_mean_motion": 14.7773432,
        "meta_eccentricity": 0.00233703,
        "meta_inclination": 98.0299,
        "meta_ra_of_asc_node": 229.3983,
        "meta_arg_of_pericenter": 278.217,
        "meta_mean_anomaly": 81.639,
        "meta_ephemeris_type": 0,
        "meta_classification_type": "U",
        "meta_norad_cat_id": 36110,
        "meta_element_set_no": 999,
        "meta_rev_at_epoch": 86222,
        "meta_bstar": 0.00014262467,
        "meta_mean_motion_dot": 9.73e-06,
        "meta_mean_motion_ddot": 0,
        "tle_line1": "1 36110U 09069A   25347.64449517  .00000973  00000+0  14262-3 0  9992",
        "tle_line2": "2 36110  98.0299 229.3983 0023370 278.2170  81.6390 14.77734320862223"
      },
      "geometry": {
        "type": "Point",
        "coordinates": [
          -120.90118306163266,
          -46.525286933833826
        ]
      }
    },
    {
      "type": "Feature",
      "properties": {
        "norad_id": 36605,
        "name": "TANDEM-X",
        "group": "resource",
        "lat": 36.360164439381606,
        "lon": 179.66381616980968,
        "alt_km": 505.29955607640477,
        "timestamp": "2025-12-14T18:52:55.154970+00:00",
        "meta_object_name": "TANDEM-X",
        "meta_object_id": "2010-030A",
        "meta_epoch": "2025-12-13T13:47:56.200128",
        "meta_mean_motion": 15.19152153,
        "meta_eccentricity": 0.00019496,
        "meta_inclination": 97.4458,
        "meta_ra_of_asc_node": 352.9445,
        "meta_arg_of_pericenter": 84.6239,
        "meta_mean_anomaly": 275.5218,
        "meta_ephemeris_type": 0,
        "meta_classification_type": "U",
        "meta_norad_cat_id": 36605,
        "meta_element_set_no": 999,
        "meta_rev_at_epoch": 85846,
        "meta_bstar": 0.0001209332,
        "meta_mean_motion_dot": 2.473e-05,
        "meta_mean_motion_ddot": 0,
        "tle_line1": "1 36605U 10030A   25347.57495602  .00002473  00000+0  12093-3 0  9996",
        "tle_line2": "2 36605  97.4458 352.9445 0001949  84.6239 275.5218 15.19152153858460"
      },
      "geometry": {
        "type": "Point",
        "coordinates": [
          179.66381616980968,
          36.360164439381606
        ]
      }
    },
    {
      "type": "Feature",
      "properties": {
        "norad_id": 36795,
        "name": "CARTOSAT-2B",
        "group": "resource",
        "lat": -66.28486928946003,
        "lon": -160.39640698395843,
        "alt_km": 649.7385585407219,
        "timestamp": "2025-12-14T18:52:55.154980+00:00",
        "meta_object_name": "CARTOSAT-2B",
        "meta_object_id": "2010-035A",
        "meta_epoch": "2025-12-13T23:54:09.785376",
        "meta_mean_motion": 14.78727344,
        "meta_eccentricity": 0.00130668,
        "meta_inclination": 97.7855,
        "meta_ra_of_asc_node": 36.9854,
        "meta_arg_of_pericenter": 72.7388,
        "meta_mean_anomaly": 287.5252,
        "meta_ephemeris_type": 0,
        "meta_classification_type": "U",
        "meta_norad_cat_id": 36795,
        "meta_element_set_no": 999,
        "meta_rev_at_epoch": 83248,
        "meta_bstar": 0.00016423547,
        "meta_mean_motion_dot": 1.157e-05,
        "meta_mean_motion_ddot": 0,
        "tle_line1": "1 36795U 10035A   25347.99594659  .00001157  00000+0  16424-3 0  9999",
        "tle_line2": "2 36795  97.7855  36.9854 0013066  72.7388 287.5252 14.78727344832482"
      },
      "geometry": {
        "type": "Point",
        "coordinates": [
          -160.39640698395843,
          -66.28486928946003
        ]
      }
    },
    {
      "type": "Feature",
      "properties": {
        "norad_id": 36834,
        "name": "YAOGAN-10",
        "group": "resource",
        "lat": 10.757481955254049,
        "lon": 7.077687251978782,
        "alt_km": 615.9477972722098,
        "timestamp": "2025-12-14T18:52:55.154991+00:00",
        "meta_object_name": "YAOGAN-10",
        "meta_object_id": "2010-038A",
        "meta_epoch": "2025-12-14T01:17:15.669312",
        "meta_mean_motion": 14.84616555,
        "meta_eccentricity": 0.00014049,
        "meta_inclination": 97.915,
        "meta_ra_of_asc_node": 7.8646,
        "meta_arg_of_pericenter": 82.5618,
        "meta_mean_anomaly": 332.7029,
        "meta_ephemeris_type": 0,
        "meta_classification_type": "U",
        "meta_norad_cat_id": 36834,
        "meta_element_set_no": 999,
        "meta_rev_at_epoch": 82973,
        "meta_bstar": 0.00035900404,
        "meta_mean_motion_dot": 2.98e-05,
        "meta_mean_motion_ddot": 0,
        "tle_line1": "1 36834U 10038A   25348.05365358  .00002980  00000+0  35900-3 0  9991",
        "tle_line2": "2 36834  97.9150   7.8646 0001404  82.5618 332.7029 14.84616555829737"
      },
      "geometry": {
        "type": "Point",
        "coordinates": [
          7.077687251978782,
          10.757481955254049
        ]
      }
    },
    {
      "type": "Feature",
      "properties": {
        "norad_id": 37216,
        "name": "COSMO-SKYMED 4",
        "group": "resource",
        "lat": -80.07623714354199,
        "lon": -137.57495909008273,
        "alt_km": 630.8263511081614,
        "timestamp": "2025-12-14T18:52:55.155001+00:00",
        "meta_object_name": "COSMO-SKYMED 4",
        "meta_object_id": "2010-060A",
        "meta_epoch": "2025-12-13T23:49:02.114976",
        "meta_mean_motion": 14.82146784,
        "meta_eccentricity": 0.00013757,
        "meta_inclination": 97.8809,
        "meta_ra_of_asc_node": 169.2967,
        "meta_arg_of_pericenter": 82.4386,
        "meta_mean_anomaly": 277.6983,
        "meta_ephemeris_type": 0,
        "meta_classification_type": "U",
        "meta_norad_cat_id": 37216,
        "meta_element_set_no": 999,
        "meta_rev_at_epoch": 81713,
        "meta_bstar": 0.00012505804,
        "meta_mean_motion_dot": 9.43e-06,
        "meta_mean_motion_ddot": 0,
        "tle_line1": "1 37216U 10060A   25347.99238559  .00000943  00000+0  12506-3 0  9999",
        "tle_line2": "2 37216  97.8809 169.2967 0001375  82.4386 277.6983 14.82146784817136"
      },
      "geometry": {
        "type": "Point",
        "coordinates": [
          -137.57495909008273,
          -80.07623714354199
        ]
      }
    },
    {
      "type": "Feature",
      "properties": {
        "norad_id": 37387,
        "name": "RESOURCESAT-2",
        "group": "resource",
        "lat": 24.009769632211523,
        "lon": -123.71976286250785,
        "alt_km": 821.5052934934256,
        "timestamp": "2025-12-14T18:52:55.155011+00:00",
        "meta_object_name": "RESOURCESAT-2",
        "meta_object_id": "2011-015A",
        "meta_epoch": "2025-12-13T23:34:18.903936",
        "meta_mean_motion": 14.21597848,
        "meta_eccentricity": 0.00063776,
        "meta_inclination": 98.7877,
        "meta_ra_of_asc_node": 51.5284,
        "meta_arg_of_pericenter": 39.4062,
        "meta_mean_anomaly": 320.7578,
        "meta_ephemeris_type": 0,
        "meta_classification_type": "U",
        "meta_norad_cat_id": 37387,
        "meta_element_set_no": 999,
        "meta_rev_at_epoch": 75986,
        "meta_bstar": 0.00011993879,
        "meta_mean_motion_dot": 2.19e-06,
        "meta_mean_motion_ddot": 0,
        "tle_line1": "1 37387U 11015A   25347.98216324  .00000219  00000+0  11994-3 0  9990",
        "tle_line2": "2 37387  98.7877  51.5284 0006377  39.4062 320.7578 14.21597848759864"
      },
      "geometry": {
        "type": "Point",
        "coordinates": [
          -123.71976286250785,
          24.009769632211523
        ]
      }
    }
  ]
}